STARLINK-3120           
1 49419U 21104M   26001.72481354  .00000630  00000+0  57670-4 0  9995
2 49419  53.2175 169.7411 0001284  80.1532 279.9605 15.08842684228517
STARLINK-3110           
1 49420U 21104N   26001.73217059  .00000783  00000+0  67243-4 0  9993
2 49420  53.2173 169.7045 0001223  92.8607 267.2525 15.08844987228515
STARLINK-3112           
1 49421U 21104P   26001.76528620  .00004969  00000+0  33031-3 0  9993
2 49421  53.2183 169.3616 0001462  75.2002 284.9152 15.08816482228528
STARLINK-3161           
1 49422U 21104Q   26001.75893381 -.00001084  00000+0 -50043-4 0  9992
2 49422  53.2168 169.8991 0001184  94.5208 265.5919 15.08827485228516
STARLINK-3149           
1 49423U 21104R   26001.72852375 -.00000072  00000+0  13581-4 0  9999
2 49423  53.2171 169.9161 0001307  80.7169 279.3971 15.08837676228515
STARLINK-3135           
1 49424U 21104S   26002.05233765  .00000050  00000+0  21202-4 0  9997
2 49424  53.2173 168.2683 0001344  79.0585 281.0559 15.08841175228569
STARLINK-3139           
1 49425U 21104T   26001.77361525  .00000783  00000+0  67296-4 0  9998
2 49425  53.2165 169.5249 0001073  81.8379 278.2735 15.08841021228535
STARLINK-3114           
1 49426U 21104U   26001.84625565  .00000819  00000+0  69537-4 0  9994
2 49426  53.2174 169.1908 0001172  91.0627 269.0499 15.08840429228539
STARLINK-3131           
1 49427U 21104V   26001.70369727  .00000946  00000+0  77528-4 0  9995
2 49427  53.2179 169.8373 0001317  84.5402 275.5741 15.08837327228521
STARLINK-3121           
1 49428U 21104W   26001.75056675 -.00001989  00000+0 -10693-3 0  9995
2 49428  53.2169 169.5328 0001264  93.1396 266.9741 15.08841804228537
STARLINK-3138           
1 49430U 21104Y   26001.72583071  .00000038  00000+0  20503-4 0  9994
2 49430  53.2175 170.0152 0002804  36.3483 323.7699 15.08833991228527
STARLINK-3153           
1 49431U 21104Z   26001.94197928 -.00001964  00000+0 -10542-3 0  9993
2 49431  53.2159 168.9451 0000743 101.4796 258.6280 15.08818665228555
STARLINK-3158           
1 49432U 21104AA  26001.66410847  .00003259  00000+0  22257-3 0  9994
2 49432  53.2168 160.0095 0001118  67.6845 292.4266 15.08866418228658
STARLINK-3079           
1 49433U 21104AB  26001.73033308  .00000712  00000+0  62791-4 0  9995
2 49433  53.2174 149.7110 0001236  87.6272 272.4861 15.08844614229895
STARLINK-3134           
1 49434U 21104AC  26001.84261086  .00002272  00000+0  16080-3 0  9996
2 49434  53.2196 169.3663 0001218  91.8119 268.3012 15.08837995229625
STARLINK-3117           
1 49435U 21104AD  26001.66873021  .00001009  00000+0  81441-4 0  9996
2 49435  53.2171 149.9891 0001315  80.6384 279.4757 15.08842129228795
STARLINK-3049           
1 49436U 21104AE  26001.66777431  .00000054  00000+0  21490-4 0  9992
2 49436  53.2174 149.9934 0001256  77.9432 282.1701 15.08840604228790
STARLINK-3130           
1 49437U 21104AF  26001.66041505  .00002773  00000+0  19223-3 0  9999
2 49437  53.2161 150.0262 0001375  79.7767 280.3380 15.08846394228792
STARLINK-3044           
1 49438U 21104AG  26001.71655951  .00000600  00000+0  55793-4 0  9992
2 49438  53.2166 149.7047 0001195  95.0799 265.0329 15.08841700228801
STARLINK-3105           
1 49440U 21104AJ  26001.71929645  .00001708  00000+0  12540-3 0  9991
2 49440  53.2172 149.7594 0001265  95.0977 265.0160 15.08840745228805
STARLINK-3128           
1 49441U 21104AK  26001.63465309 -.00000215  00000+0  45841-5 0  9990
2 49441  53.2164 150.1380 0001255  85.5084 274.6052 15.08843497228799
STARLINK-3098           
1 49442U 21104AL  26001.71561700  .00000952  00000+0  77893-4 0  9990
2 49442  53.2169 149.7751 0001106  94.3437 265.7682 15.08839596228803
STARLINK-3136           
1 49443U 21104AM  26001.69718307  .00005103  00000+0  33817-3 0  9995
2 49443  53.2175 149.8587 0001751  88.3570 271.7623 15.08871385228800
STARLINK-3126           
1 49444U 21104AN  26001.71289155  .00000568  00000+0  53757-4 0  9999
2 49444  53.2176 149.7978 0001372  92.7864 267.3285 15.08839362228803
STARLINK-3122           
1 49445U 21104AP  26001.69731521 -.00002190  00000+0 -11959-3 0  9998
2 49445  53.2186 160.2614 0001509  76.4718 283.6443 15.08826431228652
STARLINK-3099           
1 49446U 21104AQ  26001.77449796  .00001495  00000+0  11200-3 0  9992
2 49446  53.2164 149.5121 0001285  81.8851 278.2287 15.08838982228819
STARLINK-3115           
1 49447U 21104AR  26001.91710251  .00008490  00000+0  55057-3 0  9996
2 49447  53.2148 158.8750 0001472  86.0802 274.0359 15.08861502228698
STARLINK-3137           
1 49449U 21104AT  26002.16668980  .00074090  00000+0  34938-2 0  9990
2 49449  53.2166 157.4459 0001493  85.2605  19.6652 15.18832795  5826
STARLINK-3127           
1 49450U 21104AU  26001.65949825  .00000452  00000+0  46468-4 0  9999
2 49450  53.2172 160.0687 0001309  93.1165 266.9977 15.08839371228913
STARLINK-3125           
1 49451U 21104AV  26001.84348824  .00001183  00000+0  92415-4 0  9998
2 49451  53.2176 159.2040 0001317 107.0769 253.0367 15.08844160228681
