OBJECT_NAME,OBJECT_ID,EPOCH,MEAN_MOTION,ECCENTRICITY,INCLINATION,RA_OF_ASC_NODE,ARG_OF_PERICENTER,MEAN_ANOMALY,EPHEMERIS_TYPE,CLASSIFICATION_TYPE,NORAD_CAT_ID,ELEMENT_SET_NO,REV_AT_EPOCH,BSTAR,MEAN_MOTION_DOT,MEAN_MOTION_DDOT
STARLINK-3120,2021-104M,2026-01-01T17:23:43.889856,15.08842684,.00012845,53.2175,169.7411,80.1532,279.9605,0,U,49419,999,22851,.57670163E-4,.63E-5,0
STARLINK-3110,2021-104N,2026-01-01T17:34:19.538976,15.08844987,.00012231,53.2173,169.7045,92.8607,267.2525,0,U,49420,999,22851,.67243463E-4,.783E-5,0
STARLINK-3112,2021-104P,2026-01-01T18:22:00.727680,15.08816482,.00014627,53.2183,169.3616,75.2002,284.9152,0,U,49421,999,22852,.33030746E-3,.4969E-4,0
STARLINK-3161,2021-104Q,2026-01-01T18:12:51.881184,15.08827485,.0001184,53.2168,169.8991,94.5208,265.5919,0,U,49422,999,22851,-.50042687E-4,-.1084E-4,0
STARLINK-3149,2021-104R,2026-01-01T17:29:04.452000,15.08837676,.0001307,53.2171,169.9161,80.7169,279.3971,0,U,49423,999,22851,.13580976E-4,-.72E-6,0
STARLINK-3135,2021-104S,2026-01-02T01:15:21.972960,15.08841175,.0001344,53.2173,168.2683,79.0585,281.0559,0,U,49424,999,22856,.21202E-4,.5E-6,0
STARLINK-3139,2021-104T,2026-01-01T18:34:00.357600,15.08841021,.00010735,53.2165,169.5249,81.8379,278.2735,0,U,49425,999,22853,.67296325E-4,.783E-5,0
STARLINK-3114,2021-104U,2026-01-01T20:18:36.488160,15.08840429,.00011721,53.2174,169.1908,91.0627,269.0499,0,U,49426,999,22853,.69537166E-4,.819E-5,0
STARLINK-3131,2021-104V,2026-01-01T16:53:19.444128,15.08837327,.00013179,53.2179,169.8373,84.5402,275.5741,0,U,49427,999,22852,.77528434E-4,.946E-5,0
STARLINK-3121,2021-104W,2026-01-01T18:00:48.967200,15.08841804,.00012645,53.2169,169.5328,93.1396,266.9741,0,U,49428,999,22853,-.10693125E-3,-.1989E-4,0
STARLINK-3138,2021-104Y,2026-01-01T17:25:11.773344,15.08833991,.00028047,53.2175,170.0152,36.3483,323.7699,0,U,49430,999,22852,.20502747E-4,.38E-6,0
STARLINK-3153,2021-104Z,2026-01-01T22:36:27.009792,15.08818665,.0000743,53.2159,168.9451,101.4796,258.6280,0,U,49431,999,22855,-.10542E-3,-.1964E-4,0
STARLINK-3158,2021-104AA,2026-01-01T15:56:18.971808,15.08866418,.00011189,53.2168,160.0095,67.6845,292.4266,0,U,49432,999,22865,.22256873E-3,.3259E-4,0
STARLINK-3079,2021-104AB,2026-01-01T17:31:40.778112,15.08844614,.00012362,53.2174,149.7110,87.6272,272.4861,0,U,49433,999,22989,.62790976E-4,.712E-5,0
STARLINK-3134,2021-104AC,2026-01-01T20:13:21.578304,15.08837995,.00012185,53.2196,169.3663,91.8119,268.3012,0,U,49434,999,22962,.16079866E-3,.2272E-4,0
STARLINK-3117,2021-104AD,2026-01-01T16:02:58.290144,15.08842129,.0001315,53.2171,149.9891,80.6384,279.4757,0,U,49435,999,22879,.81441196E-4,.1009E-4,0
STARLINK-3049,2021-104AE,2026-01-01T16:01:35.700384,15.08840604,.00012568,53.2174,149.9934,77.9432,282.1701,0,U,49436,999,22879,.21490237E-4,.54E-6,0
STARLINK-3130,2021-104AF,2026-01-01T15:50:59.860320,15.08846394,.00013757,53.2161,150.0262,79.7767,280.3380,0,U,49437,999,22879,.19222525E-3,.2773E-4,0
STARLINK-3044,2021-104AG,2026-01-01T17:11:50.741664,15.08841700,.00011955,53.2166,149.7047,95.0799,265.0329,0,U,49438,999,22880,.55792983E-4,.6E-5,0
STARLINK-3105,2021-104AJ,2026-01-01T17:15:47.213280,15.08840745,.00012655,53.2172,149.7594,95.0977,265.0160,0,U,49440,999,22880,.1253953E-3,.1708E-4,0
STARLINK-3128,2021-104AK,2026-01-01T15:13:54.026976,15.08843497,.0001255,53.2164,150.1380,85.5084,274.6052,0,U,49441,999,22879,.45841E-5,-.215E-5,0
STARLINK-3098,2021-104AL,2026-01-01T17:10:29.308800,15.08839596,.00011066,53.2169,149.7751,94.3437,265.7682,0,U,49442,999,22880,.77892729E-4,.952E-5,0
STARLINK-3136,2021-104AM,2026-01-01T16:43:56.617248,15.08871385,.00017514,53.2175,149.8587,88.3570,271.7623,0,U,49443,999,22880,.33816606E-3,.5103E-4,0
STARLINK-3126,2021-104AN,2026-01-01T17:06:33.829920,15.08839362,.00013729,53.2176,149.7978,92.7864,267.3285,0,U,49444,999,22880,.53757099E-4,.568E-5,0
STARLINK-3122,2021-104AP,2026-01-01T16:44:08.034144,15.08826431,.00015094,53.2186,160.2614,76.4718,283.6443,0,U,49445,999,22865,-.11959468E-3,-.219E-4,0
STARLINK-3099,2021-104AQ,2026-01-01T18:35:16.623744,15.08838982,.00012859,53.2164,149.5121,81.8851,278.2287,0,U,49446,999,22881,.11200472E-3,.1495E-4,0
STARLINK-3115,2021-104AR,2026-01-01T22:00:37.656864,15.08861502,.0001472,53.2148,158.8750,86.0802,274.0359,0,U,49447,999,22869,.55057E-3,.849E-4,0
STARLINK-3137,2021-104AT,2026-01-02T04:00:01.998720,15.18832795,.0001493,53.2166,157.4459,85.2605,19.6652,0,U,49449,999,582,.34938E-2,.7409E-3,0
STARLINK-3127,2021-104AU,2026-01-01T15:49:40.648800,15.08839371,.00013093,53.2172,160.0687,93.1165,266.9977,0,U,49450,999,22891,.46467767E-4,.452E-5,0
STARLINK-3125,2021-104AV,2026-01-01T20:14:37.383936,15.08844160,.0001317,53.2176,159.2040,107.0769,253.0367,0,U,49451,999,22868,.92414835E-4,.1183E-4,0
